[{"OBJECT_NAME":"IRIDIUM 33 DEB","OBJECT_ID":"1997-051LJ","EPOCH":"2026-03-04T19:10:06.595680","MEAN_MOTION":14.40737772,"ECCENTRICITY":0.0014965,"INCLINATION":86.3441,"RA_OF_ASC_NODE":357.5478,"ARG_OF_PERICENTER":315.1597,"MEAN_ANOMALY":73.1144,"EPHEMERIS_TYPE":0,"CLASSIFICATION_TYPE":"U","NORAD_CAT_ID":34765,"ELEMENT_SET_NO":999,"REV_AT_EPOCH":88795,"BSTAR":0.00059315,"MEAN_MOTION_DOT":1.917e-5,"MEAN_MOTION_DDOT":0},{"OBJECT_NAME":"IRIDIUM 33 DEB","OBJECT_ID":"1997-051MH","EPOCH":"2026-03-04T07:50:53.106720","MEAN_MOTION":14.53002255,"ECCENTRICITY":0.00190009,"INCLINATION":86.3969,"RA_OF_ASC_NODE":15.8073,"ARG_OF_PERICENTER":175.7434,"MEAN_ANOMALY":336.2819,"EPHEMERIS_TYPE":0,"CLASSIFICATION_TYPE":"U","NORAD_CAT_ID":34833,"ELEMENT_SET_NO":999,"REV_AT_EPOCH":88899,"BSTAR":0.0012661626,"MEAN_MOTION_DOT":5.256e-5,"MEAN_MOTION_DDOT":0},{"OBJECT_NAME":"IRIDIUM 33 DEB","OBJECT_ID":"1997-051MQ","EPOCH":"2026-03-02T21:11:54.478752","MEAN_MOTION":14.782838,"ECCENTRICITY":0.001473,"INCLINATION":86.306,"RA_OF_ASC_NODE":277.3223,"ARG_OF_PERICENTER":275.7378,"MEAN_ANOMALY":144.8425,"EPHEMERIS_TYPE":0,"CLASSIFICATION_TYPE":"U","NORAD_CAT_ID":34870,"ELEMENT_SET_NO":999,"REV_AT_EPOCH":90094,"BSTAR":0.0013451,"MEAN_MOTION_DOT":9.814e-5,"MEAN_MOTION_DDOT":0},{"OBJECT_NAME":"IRIDIUM 33 DEB","OBJECT_ID":"1997-051MY","EPOCH":"2026-03-04T09:24:52.254144","MEAN_MOTION":14.67234408,"ECCENTRICITY":0.00242262,"INCLINATION":86.3261,"RA_OF_ASC_NODE":290.0466,"ARG_OF_PERICENTER":301.9211,"MEAN_ANOMALY":181.1911,"EPHEMERIS_TYPE":0,"CLASSIFICATION_TYPE":"U","NORAD_CAT_ID":34896,"ELEMENT_SET_NO":999,"REV_AT_EPOCH":88816,"BSTAR":0.0010830283,"MEAN_MOTION_DOT":6.148e-5,"MEAN_MOTION_DDOT":0},{"OBJECT_NAME":"IRIDIUM 33 DEB","OBJECT_ID":"1997-051NF","EPOCH":"2026-03-04T10:50:40.954560","MEAN_MOTION":14.58794511,"ECCENTRICITY":0.00802435,"INCLINATION":86.133,"RA_OF_ASC_NODE":330.2608,"ARG_OF_PERICENTER":17.948,"MEAN_ANOMALY":35.9019,"EPHEMERIS_TYPE":0,"CLASSIFICATION_TYPE":"U","NORAD_CAT_ID":34926,"ELEMENT_SET_NO":999,"REV_AT_EPOCH":87646,"BSTAR":0.0084547985,"MEAN_MOTION_DOT":0.00041535,"MEAN_MOTION_DDOT":0},{"OBJECT_NAME":"IRIDIUM 33 DEB","OBJECT_ID":"1997-051NR","EPOCH":"2026-03-03T20:23:08.471904","MEAN_MOTION":14.42432725,"ECCENTRICITY":0.00201504,"INCLINATION":86.3723,"RA_OF_ASC_NODE":22.2545,"ARG_OF_PERICENTER":323.4939,"MEAN_ANOMALY":65.6321,"EPHEMERIS_TYPE":0,"CLASSIFICATION_TYPE":"U","NORAD_CAT_ID":34985,"ELEMENT_SET_NO":999,"REV_AT_EPOCH":88344,"BSTAR":0.0010607467,"MEAN_MOTION_DOT":3.536e-5,"MEAN_MOTION_DDOT":0},{"OBJECT_NAME":"IRIDIUM 33 DEB","OBJECT_ID":"1997-051NX","EPOCH":"2026-03-03T04:42:35.498880","MEAN_MOTION":14.48072669,"ECCENTRICITY":0.0007886,"INCLINATION":86.3285,"RA_OF_ASC_NODE":333.7982,"ARG_OF_PERICENTER":165.3511,"MEAN_ANOMALY":194.7923,"EPHEMERIS_TYPE":0,"CLASSIFICATION_TYPE":"U","NORAD_CAT_ID":35051,"ELEMENT_SET_NO":999,"REV_AT_EPOCH":88160,"BSTAR":0.00071393968,"MEAN_MOTION_DOT":2.674e-5,"MEAN_MOTION_DDOT":0},{"OBJECT_NAME":"IRIDIUM 33 DEB","OBJECT_ID":"1997-051NY","EPOCH":"2026-03-03T18:08:14.563104","MEAN_MOTION":14.38619205,"ECCENTRICITY":0.00115453,"INCLINATION":86.3362,"RA_OF_ASC_NODE":345.7545,"ARG_OF_PERICENTER":166.6024,"MEAN_ANOMALY":193.5483,"EPHEMERIS_TYPE":0,"CLASSIFICATION_TYPE":"U","NORAD_CAT_ID":35052,"ELEMENT_SET_NO":999,"REV_AT_EPOCH":88440,"BSTAR":0.00024623271,"MEAN_MOTION_DOT":7.74e-6,"MEAN_MOTION_DDOT":0},{"OBJECT_NAME":"IRIDIUM 33 DEB","OBJECT_ID":"1997-051PF","EPOCH":"2026-03-04T13:54:49.089312","MEAN_MOTION":15.02888093,"ECCENTRICITY":0.0029339,"INCLINATION":86.207,"RA_OF_ASC_NODE":12.8377,"ARG_OF_PERICENTER":236.8268,"MEAN_ANOMALY":123.0151,"EPHEMERIS_TYPE":0,"CLASSIFICATION_TYPE":"U","NORAD_CAT_ID":35080,"ELEMENT_SET_NO":999,"REV_AT_EPOCH":70909,"BSTAR":0.011929,"MEAN_MOTION_DOT":0.00164931,"MEAN_MOTION_DDOT":0},{"OBJECT_NAME":"IRIDIUM 33 DEB","OBJECT_ID":"1997-051PM","EPOCH":"2026-03-03T16:03:27.807840","MEAN_MOTION":14.4557971,"ECCENTRICITY":0.00134553,"INCLINATION":86.3861,"RA_OF_ASC_NODE":28.1932,"ARG_OF_PERICENTER":231.0302,"MEAN_ANOMALY":128.9703,"EPHEMERIS_TYPE":0,"CLASSIFICATION_TYPE":"U","NORAD_CAT_ID":35297,"ELEMENT_SET_NO":999,"REV_AT_EPOCH":71595,"BSTAR":0.00087193916,"MEAN_MOTION_DOT":3.1e-5,"MEAN_MOTION_DDOT":0},{"OBJECT_NAME":"IRIDIUM 33 DEB","OBJECT_ID":"1997-051PP","EPOCH":"2026-03-04T07:00:13.279104","MEAN_MOTION":14.41627307,"ECCENTRICITY":0.00536324,"INCLINATION":86.2922,"RA_OF_ASC_NODE":357.6665,"ARG_OF_PERICENTER":191.2984,"MEAN_ANOMALY":322.9952,"EPHEMERIS_TYPE":0,"CLASSIFICATION_TYPE":"U","NORAD_CAT_ID":35299,"ELEMENT_SET_NO":999,"REV_AT_EPOCH":87505,"BSTAR":0.0018059402,"MEAN_MOTION_DOT":5.999e-5,"MEAN_MOTION_DDOT":0},{"OBJECT_NAME":"IRIDIUM 33 DEB","OBJECT_ID":"1997-051QA","EPOCH":"2026-03-02T05:33:05.911488","MEAN_MOTION":14.50243832,"ECCENTRICITY":0.00125112,"INCLINATION":86.3616,"RA_OF_ASC_NODE":350.4456,"ARG_OF_PERICENTER":190.4902,"MEAN_ANOMALY":169.6043,"EPHEMERIS_TYPE":0,"CLASSIFICATION_TYPE":"U","NORAD_CAT_ID":35480,"ELEMENT_SET_NO":999,"REV_AT_EPOCH":88183,"BSTAR":0.00076407362,"MEAN_MOTION_DOT":2.995e-5,"MEAN_MOTION_DDOT":0},{"OBJECT_NAME":"IRIDIUM 33 DEB","OBJECT_ID":"1997-051QE","EPOCH":"2026-02-19T04:36:15.127200","MEAN_MOTION":15.05777687,"ECCENTRICITY":0.0011587,"INCLINATION":86.3587,"RA_OF_ASC_NODE":320.5585,"ARG_OF_PERICENTER":239.1626,"MEAN_ANOMALY":120.847,"EPHEMERIS_TYPE":0,"CLASSIFICATION_TYPE":"U","NORAD_CAT_ID":35484,"ELEMENT_SET_NO":999,"REV_AT_EPOCH":63043,"BSTAR":0.002574,"MEAN_MOTION_DOT":0.00037506,"MEAN_MOTION_DDOT":0},{"OBJECT_NAME":"IRIDIUM 33 DEB","OBJECT_ID":"1997-051QJ","EPOCH":"2026-03-04T12:42:18.466560","MEAN_MOTION":14.85211988,"ECCENTRICITY":0.00274465,"INCLINATION":86.3188,"RA_OF_ASC_NODE":263.097,"ARG_OF_PERICENTER":108.2033,"MEAN_ANOMALY":252.2182,"EPHEMERIS_TYPE":0,"CLASSIFICATION_TYPE":"U","NORAD_CAT_ID":35488,"ELEMENT_SET_NO":999,"REV_AT_EPOCH":89479,"BSTAR":0.0020193838,"MEAN_MOTION_DOT":0.00017474,"MEAN_MOTION_DDOT":0},{"OBJECT_NAME":"IRIDIUM 33 DEB","OBJECT_ID":"1997-051QN","EPOCH":"2026-03-03T00:05:22.265952","MEAN_MOTION":14.84547006,"ECCENTRICITY":0.00067821,"INCLINATION":86.3536,"RA_OF_ASC_NODE":309.0606,"ARG_OF_PERICENTER":263.3407,"MEAN_ANOMALY":96.7045,"EPHEMERIS_TYPE":0,"CLASSIFICATION_TYPE":"U","NORAD_CAT_ID":35616,"ELEMENT_SET_NO":999,"REV_AT_EPOCH":88764,"BSTAR":0.0016284093,"MEAN_MOTION_DOT":0.00013776,"MEAN_MOTION_DDOT":0},{"OBJECT_NAME":"IRIDIUM 33 DEB","OBJECT_ID":"1997-051QQ","EPOCH":"2026-03-04T11:11:49.822368","MEAN_MOTION":14.52714174,"ECCENTRICITY":0.00305475,"INCLINATION":86.3417,"RA_OF_ASC_NODE":317.7694,"ARG_OF_PERICENTER":101.7612,"MEAN_ANOMALY":258.7023,"EPHEMERIS_TYPE":0,"CLASSIFICATION_TYPE":"U","NORAD_CAT_ID":35618,"ELEMENT_SET_NO":999,"REV_AT_EPOCH":66580,"BSTAR":0.00054634879,"MEAN_MOTION_DOT":2.274e-5,"MEAN_MOTION_DDOT":0}]
